EOSSAT-1                
1 55053U 23001AW  26068.73619225  .00007695  00000+0  24844-3 0  9992
2 55053  97.3357 130.2294 0011263 110.3168 249.9285 15.32339828176689
STARLINK-34549          
1 65017U 25161C   26068.87933726  .00029539  00000+0  10049-2 0  9994
2 65017  53.1605 292.9816 0003156 173.4976 186.6067 15.30218572 35477
